MALLIGYONG-1            
1 58400U 23179A   24215.87970477  .00008163  00000+0  36315-3 0  9990
2 58400  97.3978 101.9381 0003117  66.3034 293.8529 15.21740018 38827
